NORAD_CAT_ID,OBJECT_NAME,OBJECT_TYPE,EPOCH,MEAN_MOTION,ECCENTRICITY,INCLINATION,RA_OF_ASC_NODE,ARG_OF_PERICENTER,MEAN_ANOMALY,BSTAR,MEAN_MOTION_DOT,MEAN_MOTION_DDOT,TLE_LINE0,TLE_LINE1,TLE_LINE2,SEMIMAJOR_AXIS,PERIOD,APOGEE,PERIGEE,DECAYED
53931.0,STARLINK-5015,PAYLOAD,2023-08-02 02:26:12,15.08844381,0.000126,53.2137,246.138,86.4262,273.6874,-0.00014611,-2.613e-05,0.0,0 STARLINK-5015,1 53931U 22119AX  23214.10153438 -.00002613  00000-0 -14611-3 0  9993,2 53931  53.2137 246.1380 0001260  86.4262 273.6874 15.08844381 48118,6917.867,95.437,540.604,538.86,0.0
53931.0,STARLINK-5015,PAYLOAD,2023-08-03 08:38:32,15.08839088,0.0001166,53.2154,240.4881,93.9018,266.2108,7.4266e-05,8.94e-06,0.0,0 STARLINK-5015,1 53931U 22119AX  23215.36009757  .00000894  00000-0  74266-4 0  9996,2 53931  53.2154 240.4881 0001166  93.9018 266.2108 15.08839088 48304,6917.883,95.438,540.555,538.942,0.0
53931.0,STARLINK-5015,PAYLOAD,2023-08-04 00:32:24,15.08832548,0.0001189,53.2161,237.5153,92.6177,267.4951,5.0956e-05,5.23e-06,0.0,0 STARLINK-5015,1 53931U 22119AX  23216.02250386  .00000523  00000-0  50956-4 0  9995,2 53931  53.2161 237.5153 0001189  92.6177 267.4951 15.08832548 48402,6917.903,95.438,540.591,538.946,0.0
53931.0,STARLINK-5015,PAYLOAD,2023-08-05 08:20:06,15.08866324,0.0001031,53.2155,231.5685,98.2252,261.8857,-0.0002874,-4.862e-05,0.0,0 STARLINK-5015,1 53931U 22119AX  23217.34729340 -.00004862  00000-0 -28740-3 0  9999,2 53931  53.2155 231.5685 0001031  98.2252 261.8857 15.08866324 48605,6917.8,95.436,540.378,538.952,0.0
53931.0,STARLINK-5015,PAYLOAD,2023-08-05 11:30:52,15.08851675,0.0001323,53.2152,230.9732,107.6836,252.43,-6.3692e-05,-1.302e-05,0.0,0 STARLINK-5015,1 53931U 22119AX  23217.47977638 -.00001302  00000-0 -63692-4 0  9990,2 53931  53.2152 230.9732 0001323 107.6836 252.4300 15.08851675 48629,6917.845,95.437,540.625,538.794,0.0
53931.0,STARLINK-5015,PAYLOAD,2023-08-06 01:49:21,15.08838553,0.0001129,53.2151,228.2968,99.1489,260.9631,0.00010265,1.346e-05,0.0,0 STARLINK-5015,1 53931U 22119AX  23218.07594196  .00001346  00000-0  10265-3 0  9994,2 53931  53.2151 228.2968 0001129  99.1489 260.9631 15.08838553 48713,6917.885,95.438,540.531,538.969,0.0
53931.0,STARLINK-5015,PAYLOAD,2023-08-07 08:01:41,15.08833651,0.0001069,53.2149,222.6472,98.244,261.8673,-3.3782e-05,-8.25e-06,0.0,0 STARLINK-5015,1 53931U 22119AX  23219.33451002 -.00000825  00000-0 -33782-4 0  9995,2 53931  53.2149 222.6472 0001069  98.2440 261.8673 15.08833651 48909,6917.9,95.438,540.504,539.025,0.0
53931.0,STARLINK-5015,PAYLOAD,2023-08-07 17:34:01,15.08826391,0.000109,53.2146,220.8631,105.2886,254.8227,-8.246e-05,-1.599e-05,0.0,0 STARLINK-5015,1 53931U 22119AX  23219.73195815 -.00001599  00000-0 -82460-4 0  9992,2 53931  53.2146 220.8631 0001090 105.2886 254.8227 15.08826391 48966,6917.922,95.438,540.541,539.033,0.0
53931.0,STARLINK-5015,PAYLOAD,2023-08-08 06:17:06,15.08833587,0.0001189,53.2153,218.4843,92.069,268.0438,3.8458e-06,-2.27e-06,0.0,0 STARLINK-5015,1 53931U 22119AX  23220.26187624 -.00000227  00000-0  38458-5 0  9996,2 53931  53.2153 218.4843 0001189  92.0690 268.0438 15.08833587 49043,6917.9,95.438,540.588,538.942,0.0
53931.0,STARLINK-5015,PAYLOAD,2023-08-09 09:18:39,15.08840969,0.0001076,53.2151,213.4286,94.7751,265.3364,0.00011359,1.52e-05,0.0,0 STARLINK-5015,1 53931U 22119AX  23221.38795413  .00001520  00000-0  11359-3 0  9996,2 53931  53.2151 213.4286 0001076  94.7751 265.3364 15.08840969 49218,6917.877,95.437,540.487,538.998,0.0
53931.0,STARLINK-5015,PAYLOAD,2023-08-10 09:09:25,15.08856301,0.0001119,53.2145,208.9675,98.2566,261.8554,0.00034907,5.274e-05,0.0,0 STARLINK-5015,1 53931U 22119AX  23222.38154806  .00005274  00000-0  34907-3 0  9996,2 53931  53.2145 208.9675 0001119  98.2566 261.8554 15.08856301 49368,6917.831,95.437,540.47,538.921,0.0
53931.0,STARLINK-5015,PAYLOAD,2023-08-11 15:21:43,15.0885965,0.0001139,53.2146,203.3179,96.9691,263.1431,0.00012721,1.738e-05,0.0,0 STARLINK-5015,1 53931U 22119AX  23223.64009234  .00001738  00000-0  12721-3 0  9991,2 53931  53.2146 203.3179 0001139  96.9691 263.1431 15.08859650 49553,6917.82,95.436,540.473,538.897,0.0
53931.0,STARLINK-5015,PAYLOAD,2023-08-12 02:29:26,15.08836504,0.00015,53.2189,201.2379,97.437,262.6792,-0.00028535,-4.826e-05,0.0,0 STARLINK-5015,1 53931U 22119AX  23224.10378161 -.00004826  00000-0 -28535-3 0  9994,2 53931  53.2189 201.2379 0001500  97.4370 262.6792 15.08836504 49626,6917.891,95.438,540.794,538.718,0.0
53931.0,STARLINK-5015,PAYLOAD,2023-08-13 00:44:50,15.08845942,0.0001651,53.215,197.0736,104.2944,255.8231,-0.00051944,-8.547e-05,0.0,0 STARLINK-5015,1 53931U 22119AX  23225.03113709 -.00008547  00000-0 -51944-3 0  9996,2 53931  53.2150 197.0736 0001651 104.2944 255.8231 15.08845942 49767,6917.862,95.437,540.869,538.585,0.0
53931.0,STARLINK-5015,PAYLOAD,2023-08-14 02:11:01,15.0883196,0.0001079,53.2151,192.316,86.0124,274.0992,0.00017589,2.512e-05,0.0,0 STARLINK-5015,1 53931U 22119AX  23226.09099446  .00002512  00000-0  17589-3 0  9995,2 53931  53.2151 192.3160 0001079  86.0124 274.0992 15.08831960 49928,6917.905,95.438,540.516,539.024,0.0
53931.0,STARLINK-5015,PAYLOAD,2023-08-15 02:01:48,15.0884633,8.95e-05,53.2147,187.8546,93.7551,266.3543,0.00036005,5.448e-05,0.0,0 STARLINK-5015,1 53931U 22119AX  23227.08459021  .00005448  00000-0  36005-3 0  9999,2 53931  53.2147 187.8546 0000895  93.7551 266.3543 15.08846330 50075,6917.861,95.437,540.345,539.107,0.0
53931.0,STARLINK-5015,PAYLOAD,2023-08-16 03:27:58,15.08847285,0.0001293,53.2151,183.096,87.091,273.023,0.0002772,4.127e-05,0.0,0 STARLINK-5015,1 53931U 22119AX  23228.14443209  .00004127  00000-0  27720-3 0  9995,2 53931  53.2151 183.0960 0001293  87.0910 273.0230 15.08847285 50232,6917.858,95.437,540.618,538.829,0.0
53931.0,STARLINK-5015,PAYLOAD,2023-08-17 00:08:00,15.08837738,0.0001323,53.216,179.2296,89.2347,270.8797,0.00017443,2.489e-05,0.0,0 STARLINK-5015,1 53931U 22119AX  23229.00555640  .00002489  00000-0  17443-3 0  9994,2 53931  53.2160 179.2296 0001323  89.2347 270.8797 15.08837738 50362,6917.887,95.438,540.668,538.837,0.0
53931.0,STARLINK-5015,PAYLOAD,2023-08-18 03:09:32,15.08850693,0.0001346,53.2163,174.175,91.9588,268.1558,0.00031858,4.787e-05,0.0,0 STARLINK-5015,1 53931U 22119AX  23230.13163189  .00004787  00000-0  31858-3 0  9992,2 53931  53.2163 174.1750 0001346  91.9588 268.1558 15.08850693 50535,6917.848,95.437,540.644,538.782,0.0
53931.0,STARLINK-5015,PAYLOAD,2023-08-19 01:24:57,15.08840333,0.0001357,53.2167,170.0138,89.0713,271.0434,5.2713e-05,5.51e-06,0.0,0 STARLINK-5015,1 53931U 22119AX  23231.05899570  .00000551  00000-0  52713-4 0  9993,2 53931  53.2167 170.0138 0001357  89.0713 271.0434 15.08840333 50675,6917.879,95.438,540.683,538.806,0.0
53931.0,STARLINK-5015,PAYLOAD,2023-08-20 02:51:07,15.08838785,0.0001413,53.2173,165.2584,100.3626,259.7525,1.3042e-05,-8e-07,0.0,0 STARLINK-5015,1 53931U 22119AX  23232.11883926 -.00000080  00000-0  13042-4 0  9999,2 53931  53.2173 165.2584 0001413 100.3626 259.7525 15.08838785 50836,6917.884,95.438,540.727,538.772,0.0
53931.0,STARLINK-5015,PAYLOAD,2023-08-21 01:06:31,15.08848295,0.000161,53.2181,161.0929,92.5461,267.5715,0.00024677,3.642e-05,0.0,0 STARLINK-5015,1 53931U 22119AX  23233.04619563  .00003642  00000-0  24677-3 0  9997,2 53931  53.2181 161.0929 0001610  92.5461 267.5715 15.08848295 50970,6917.855,95.437,540.834,538.606,0.0
53931.0,STARLINK-5015,PAYLOAD,2023-08-21 05:52:40,15.08859639,0.0001444,53.217,160.2006,90.9129,269.2029,0.00046815,7.174e-05,0.0,0 STARLINK-5015,1 53931U 22119AX  23233.24491112  .00007174  00000-0  46815-3 0  9999,2 53931  53.2170 160.2006 0001444  90.9129 269.2029 15.08859639 51009,6917.82,95.436,540.684,538.686,0.0
53931.0,STARLINK-5015,PAYLOAD,2023-08-22 02:32:41,15.08842608,0.00013,53.2162,156.3357,84.1118,276.0022,6.433e-05,7.36e-06,0.0,0 STARLINK-5015,1 53931U 22119AX  23234.10603711  .00000736  00000-0  64330-4 0  9995,2 53931  53.2162 156.3357 0001300  84.1118 276.0022 15.08842608 51130,6917.872,95.437,540.637,538.838,0.0
53931.0,STARLINK-5015,PAYLOAD,2023-08-24 03:49:39,15.08845144,0.0001443,53.216,147.1169,80.4758,279.6397,0.00019481,2.814e-05,0.0,0 STARLINK-5015,1 53931U 22119AX  23236.15948214  .00002814  00000-0  19481-3 0  9997,2 53931  53.2160 147.1169 0001443  80.4758 279.6397 15.08845144 51866,6917.865,95.437,540.728,538.731,0.0
53931.0,STARLINK-5015,PAYLOAD,2023-08-25 03:40:26,15.08844022,0.0001491,53.2163,142.6556,83.0247,277.0915,0.00014119,1.96e-05,0.0,0 STARLINK-5015,1 53931U 22119AX  23237.15308309  .00001960  00000-0  14119-3 0  9997,2 53931  53.2163 142.6556 0001491  83.0247 277.0915 15.08844022 51596,6917.868,95.437,540.765,538.702,0.0
53931.0,STARLINK-5015,PAYLOAD,2023-08-26 03:31:13,15.08846273,0.000142,53.2172,138.1955,76.0897,284.0253,3.639e-05,2.91e-06,0.0,0 STARLINK-5015,1 53931U 22119AX  23238.14668155  .00000291  00000-0  36390-4 0  9997,2 53931  53.2172 138.1955 0001420  76.0897 284.0253 15.08846273 52161,6917.861,95.437,540.709,538.744,0.0
53931.0,STARLINK-5015,PAYLOAD,2023-08-26 17:49:41,15.08837749,0.0001291,53.217,135.5196,88.2719,271.842,-1.2049e-05,-4.8e-06,0.0,0 STARLINK-5015,1 53931U 22119AX  23238.74284549 -.00000480  00000-0 -12049-4 0  9991,2 53931  53.2170 135.5196 0001291  88.2719 271.8420 15.08837749 51832,6917.887,95.438,540.645,538.859,0.0
53931.0,STARLINK-5015,PAYLOAD,2023-08-26 21:00:28,15.08841994,0.0001219,53.2172,134.9246,92.2824,267.8307,6.1193e-05,6.86e-06,0.0,0 STARLINK-5015,1 53931U 22119AX  23238.87532435  .00000686  00000-0  61193-4 0  9995,2 53931  53.2172 134.9246 0001219  92.2824 267.8307 15.08841994 52270,6917.874,95.437,540.583,538.896,0.0
53931.0,STARLINK-5015,PAYLOAD,2023-08-27 01:46:37,15.08846761,0.0001226,53.2174,134.0323,86.1495,273.9637,0.00011823,1.595e-05,0.0,0 STARLINK-5015,1 53931U 22119AX  23239.07404037  .00001595  00000-0  11823-3 0  9998,2 53931  53.2174 134.0323 0001226  86.1495 273.9637 15.08846761 51880,6917.86,95.437,540.573,538.877,0.0
